{
  "type": "FeatureCollection",
  "features": [
    {
      "type": "Feature",
      "properties": {
        "norad_id": 66397,
        "name": "STARLINK-35510",
        "group": "last-30-days",
        "lat": -46.795072811549396,
        "lon": -101.72511830834337,
        "alt_km": 424.18402905241965,
        "timestamp": "2025-12-02T19:35:49.342160+00:00",
        "meta_object_name": "STARLINK-35510",
        "meta_object_id": "2025-257T",
        "meta_epoch": "2025-12-02T12:00:05.998752",
        "meta_mean_motion": 15.49306597,
        "meta_eccentricity": 0.0001273,
        "meta_inclination": 53.1582,
        "meta_ra_of_asc_node": 312.7553,
        "meta_arg_of_pericenter": 80.4376,
        "meta_mean_anomaly": 247.8398,
        "meta_ephemeris_type": 0,
        "meta_classification_type": "U",
        "meta_norad_cat_id": 66397,
        "meta_element_set_no": 999,
        "meta_rev_at_epoch": 485,
        "meta_bstar": -0.00059665,
        "meta_mean_motion_dot": -0.00033487,
        "meta_mean_motion_ddot": 0,
        "tle_line1": "1 66397U 25257T   25336.50006943 -.00033487  00000+0 -59665-3 0  9998",
        "tle_line2": "2 66397  53.1582 312.7553 0001273  80.4376 247.8398 15.49306597  4851"
      },
      "geometry": {
        "type": "Point",
        "coordinates": [
          -101.72511830834337,
          -46.795072811549396
        ]
      }
    },
    {
      "type": "Feature",
      "properties": {
        "norad_id": 66398,
        "name": "STARLINK-35642",
        "group": "last-30-days",
        "lat": -45.84715338850738,
        "lon": -99.32140278429799,
        "alt_km": 424.20824261285634,
        "timestamp": "2025-12-02T19:35:49.342170+00:00",
        "meta_object_name": "STARLINK-35642",
        "meta_object_id": "2025-257U",
        "meta_epoch": "2025-12-02T12:00:05.998752",
        "meta_mean_motion": 15.49304382,
        "meta_eccentricity": 0.0001318,
        "meta_inclination": 53.1583,
        "meta_ra_of_asc_node": 312.7507,
        "meta_arg_of_pericenter": 85.9297,
        "meta_mean_anomaly": 244.2663,
        "meta_ephemeris_type": 0,
        "meta_classification_type": "U",
        "meta_norad_cat_id": 66398,
        "meta_element_set_no": 999,
        "meta_rev_at_epoch": 485,
        "meta_bstar": -0.00055193,
        "meta_mean_motion_dot": -0.00031018,
        "meta_mean_motion_ddot": 0,
        "tle_line1": "1 66398U 25257U   25336.50006943 -.00031018  00000+0 -55193-3 0  9999",
        "tle_line2": "2 66398  53.1583 312.7507 0001318  85.9297 244.2663 15.49304382  4850"
      },
      "geometry": {
        "type": "Point",
        "coordinates": [
          -99.32140278429799,
          -45.84715338850738
        ]
      }
    },
    {
      "type": "Feature",
      "properties": {
        "norad_id": 66399,
        "name": "STARLINK-35657",
        "group": "last-30-days",
        "lat": -44.85034454435031,
        "lon": -96.99982100690406,
        "alt_km": 424.20908923726074,
        "timestamp": "2025-12-02T19:35:49.342180+00:00",
        "meta_object_name": "STARLINK-35657",
        "meta_object_id": "2025-257V",
        "meta_epoch": "2025-12-02T12:00:05.998752",
        "meta_mean_motion": 15.49303234,
        "meta_eccentricity": 0.0001381,
        "meta_inclination": 53.1583,
        "meta_ra_of_asc_node": 312.7469,
        "meta_arg_of_pericenter": 87.7962,
        "meta_mean_anomaly": 244.318,
        "meta_ephemeris_type": 0,
        "meta_classification_type": "U",
        "meta_norad_cat_id": 66399,
        "meta_element_set_no": 999,
        "meta_rev_at_epoch": 485,
        "meta_bstar": -0.00051258,
        "meta_mean_motion_dot": -0.00028845,
        "meta_mean_motion_ddot": 0,
        "tle_line1": "1 66399U 25257V   25336.50006943 -.00028845  00000+0 -51258-3 0  9992",
        "tle_line2": "2 66399  53.1583 312.7469 0001381  87.7962 244.3180 15.49303234  4857"
      },
      "geometry": {
        "type": "Point",
        "coordinates": [
          -96.99982100690406,
          -44.85034454435031
        ]
      }
    },
    {
      "type": "Feature",
      "properties": {
        "norad_id": 66400,
        "name": "STARLINK-35667",
        "group": "last-30-days",
        "lat": -42.60561726711845,
        "lon": -92.37270841801605,
        "alt_km": 423.7101382922656,
        "timestamp": "2025-12-02T19:35:49.342190+00:00",
        "meta_object_name": "STARLINK-35667",
        "meta_object_id": "2025-257W",
        "meta_epoch": "2025-12-02T12:00:05.998752",
        "meta_mean_motion": 15.49413249,
        "meta_eccentricity": 0.0001621,
        "meta_inclination": 53.1582,
        "meta_ra_of_asc_node": 312.7385,
        "meta_arg_of_pericenter": 88.3911,
        "meta_mean_anomaly": 247.6,
        "meta_ephemeris_type": 0,
        "meta_classification_type": "U",
        "meta_norad_cat_id": 66400,
        "meta_element_set_no": 999,
        "meta_rev_at_epoch": 485,
        "meta_bstar": 0.0013648,
        "meta_mean_motion_dot": 0.00076485,
        "meta_mean_motion_ddot": 0,
        "tle_line1": "1 66400U 25257W   25336.50006943  .00076485  00000+0  13648-2 0  9996",
        "tle_line2": "2 66400  53.1582 312.7385 0001621  88.3911 247.6000 15.49413249  4859"
      },
      "geometry": {
        "type": "Point",
        "coordinates": [
          -92.37270841801605,
          -42.60561726711845
        ]
      }
    },
    {
      "type": "Feature",
      "properties": {
        "norad_id": 66401,
        "name": "STARLINK-35668",
        "group": "last-30-days",
        "lat": -41.591258706869105,
        "lon": -90.4973169677402,
        "alt_km": 423.9360761193366,
        "timestamp": "2025-12-02T19:35:49.342200+00:00",
        "meta_object_name": "STARLINK-35668",
        "meta_object_id": "2025-257X",
        "meta_epoch": "2025-12-02T12:00:05.998752",
        "meta_mean_motion": 15.49294846,
        "meta_eccentricity": 0.0001214,
        "meta_inclination": 53.1583,
        "meta_ra_of_asc_node": 312.7347,
        "meta_arg_of_pericenter": 84.5401,
        "meta_mean_anomaly": 253.3492,
        "meta_ephemeris_type": 0,
        "meta_classification_type": "U",
        "meta_norad_cat_id": 66401,
        "meta_element_set_no": 999,
        "meta_rev_at_epoch": 485,
        "meta_bstar": -0.00051635,
        "meta_mean_motion_dot": -0.00029045,
        "meta_mean_motion_ddot": 0,
        "tle_line1": "1 66401U 25257X   25336.50006943 -.00029045  00000+0 -51635-3 0  9998",
        "tle_line2": "2 66401  53.1583 312.7347 0001214  84.5401 253.3492 15.49294846  4858"
      },
      "geometry": {
        "type": "Point",
        "coordinates": [
          -90.4973169677402,
          -41.591258706869105
        ]
      }
    },
    {
      "type": "Feature",
      "properties": {
        "norad_id": 66402,
        "name": "STARLINK-35644",
        "group": "last-30-days",
        "lat": -43.80886562939948,
        "lon": -94.76168745357921,
        "alt_km": 424.11858416707764,
        "timestamp": "2025-12-02T19:35:49.342212+00:00",
        "meta_object_name": "STARLINK-35644",
        "meta_object_id": "2025-257Y",
        "meta_epoch": "2025-12-02T12:00:05.998752",
        "meta_mean_motion": 15.49305033,
        "meta_eccentricity": 0.000134,
        "meta_inclination": 53.1582,
        "meta_ra_of_asc_node": 312.7426,
        "meta_arg_of_pericenter": 86.3336,
        "meta_mean_anomaly": 247.6956,
        "meta_ephemeris_type": 0,
        "meta_classification_type": "U",
        "meta_norad_cat_id": 66402,
        "meta_element_set_no": 999,
        "meta_rev_at_epoch": 485,
        "meta_bstar": -0.0005627,
        "meta_mean_motion_dot": -0.00031613,
        "meta_mean_motion_ddot": 0,
        "tle_line1": "1 66402U 25257Y   25336.50006943 -.00031613  00000+0 -56270-3 0  9993",
        "tle_line2": "2 66402  53.1582 312.7426 0001340  86.3336 247.6956 15.49305033  4855"
      },
      "geometry": {
        "type": "Point",
        "coordinates": [
          -94.76168745357921,
          -43.80886562939948
        ]
      }
    },
    {
      "type": "Feature",
      "properties": {
        "norad_id": 66403,
        "name": "STARLINK-35602",
        "group": "last-30-days",
        "lat": -40.440270562063475,
        "lon": -88.50097655025527,
        "alt_km": 424.0399735546507,
        "timestamp": "2025-12-02T19:35:49.342225+00:00",
        "meta_object_name": "STARLINK-35602",
        "meta_object_id": "2025-257Z",
        "meta_epoch": "2025-12-02T12:00:05.998752",
        "meta_mean_motion": 15.4931044,
        "meta_eccentricity": 0.0001516,
        "meta_inclination": 53.1583,
        "meta_ra_of_asc_node": 312.7308,
        "meta_arg_of_pericenter": 87.6207,
        "meta_mean_anomaly": 252.1582,
        "meta_ephemeris_type": 0,
        "meta_classification_type": "U",
        "meta_norad_cat_id": 66403,
        "meta_element_set_no": 999,
        "meta_rev_at_epoch": 485,
        "meta_bstar": -0.00075052,
        "meta_mean_motion_dot": -0.00041969,
        "meta_mean_motion_ddot": 0,
        "tle_line1": "1 66403U 25257Z   25336.50006943 -.00041969  00000+0 -75052-3 0  9998",
        "tle_line2": "2 66403  53.1583 312.7308 0001516  87.6207 252.1582 15.49310440  4856"
      },
      "geometry": {
        "type": "Point",
        "coordinates": [
          -88.50097655025527,
          -40.440270562063475
        ]
      }
    }
  ]
}